ONEWEB-0331             
1 49198U 21083N   25265.60677911  .00000063  00000+0  12731-3 0  9997
2 49198  87.9208  28.5794 0002091  94.3768 265.7603 13.18684283194749
ONEWEB-0333             
1 49199U 21083P   25265.60444944  .00000317  00000+0  83299-3 0  9995
2 49199  87.9035  13.4262 0001665 100.5181 259.6136 13.13471632195781
ONEWEB-0334             
1 49200U 21083Q   25265.56954743  .00000059  00000+0  11306-3 0  9999
2 49200  87.9254 327.8253 0000940 117.6352 242.4877 13.20771842201462
ONEWEB-0335             
1 49201U 21083R   25265.29465350  .00000481  00000+0  12809-2 0  9998
2 49201  87.9032  13.4751 0001888  96.3312 263.8032 13.13472185195753
ONEWEB-0336             
1 49202U 21083S   25265.34203977 -.00000204  00000+0 -59325-3 0  9990
2 49202  87.9037  13.4598 0001992  96.6607 263.4749 13.13473609195757
ONEWEB-0337             
1 49203U 21083T   25265.58060318  .00000129  00000+0  31727-3 0  9997
2 49203  87.9047  13.4176 0001989 102.3269 257.8082 13.13469364195789
ONEWEB-0338             
1 49204U 21083U   25265.46854226  .00000100  00000+0  21356-3 0  9990
2 49204  87.9264 327.8451 0001609 102.8745 257.2568 13.20769889201472
ONEWEB-0339             
1 49205U 21083V   25265.58921476  .00000292  00000+0  76552-3 0  9996
2 49205  87.9045  13.4000 0001742 105.4978 254.6344 13.13469018195763
